[
  {
    "norad_id": "49069",
    "name": "LEDSAT",
    "tle1": "1 49069U 21073D   25119.20114472  .00070100  00000+0  10296-2 0  9997\r",
    "tle2": "2 49069  97.3912 199.1781 0011704 221.5386 138.4979 15.55187792204992",
    "transmitters": [
      {
        "description": "Mode U - Beacon GMSK9k6 AX.100",
        "mode": "MSK AX.100 Mode 5",
        "status": "active",
        "uplink": null,
        "downlink": 435190000
      },
      {
        "description": "Mode U/U - Digipeater GMSK1k2 AX.100",
        "mode": "MSK AX.100 Mode 5",
        "status": "active",
        "uplink": 435310000,
        "downlink": 435190000
      }
    ],
    "image": "satellites/ledsat.png",
    "country": "IT"
  },
  {
    "norad_id": "60209",
    "name": "MESAT-1",
    "tle1": "1 60209U 24125G   25118.34151015  .00029119  00000+0  86731-3 0  9997\r",
    "tle2": "2 60209  97.2838 330.4685 0017725 289.9849  69.9485 15.34492565 45471",
    "transmitters": [
      {
        "description": "GlobalStar EyeStar 2M32G1D",
        "mode": "BPSK",
        "status": "active",
        "uplink": null,
        "downlink": 1616250000
      },
      {
        "description": "UHF TLM 1k2 BPSK",
        "mode": "BPSK",
        "status": "active",
        "uplink": null,
        "downlink": 435800000
      },
      {
        "description": "Mode V/U - BPSK1k2 - Transponder",
        "mode": "BPSK",
        "status": "active",
        "uplink": "145910000-145940000",
        "downlink": "435810000-435840000"
      }
    ],
    "image": "satellites/IMG_0571-317x422.jpg",
    "country": "US"
  },
  {
    "norad_id": "43780",
    "name": "MOVE-2",
    "tle1": "1 43780U 18099Y   25118.85961793  .00165955  00000+0  19569-2 0  9996\r",
    "tle2": "2 43780  97.4683 191.8032 0004269 238.7491 121.3348 15.60798264351267",
    "transmitters": [
      {
        "description": "CW Beacon",
        "mode": "CW",
        "status": "active",
        "uplink": null,
        "downlink": 145950000
      },
      {
        "description": "BPSK Telemetry",
        "mode": "BPSK",
        "status": "active",
        "uplink": null,
        "downlink": 145950000
      },
      {
        "description": "BPSK TLM IQ recording usage",
        "mode": "BPSK",
        "status": "active",
        "uplink": null,
        "downlink": 145950000
      }
    ],
    "image": "",
    "country": "DE"
  },
  {
    "norad_id": "26931",
    "name": "NO-44",
    "tle1": "1 26931U 01043C   25118.73177961  .00000434  00000+0  19359-3 0  9997\r",
    "tle2": "2 26931  67.0509 236.0354 0005653 272.0234  88.0221 14.31711029231110",
    "transmitters": [
      {
        "description": "Mode V/V APRS AFSK",
        "mode": "AFSK",
        "status": "active",
        "uplink": 145825000,
        "downlink": 145825000
      },
      {
        "description": "PE0SAT - 1k2 AFSK APRS",
        "mode": "AFSK",
        "status": "active",
        "uplink": null,
        "downlink": 145826800
      },
      {
        "description": "Mode V - R2 Backup APRS 1K2",
        "mode": "AFSK",
        "status": "active",
        "uplink": null,
        "downlink": 144390000
      }
    ],
    "image": "https://db-satnogs.freetls.fastly.net/media/satellites/no44.gif",
    "country": "US"
  },
  {
    "norad_id": "63211",
    "name": "NUSHSat-1",
    "tle1": "1 63211U 25052B   25118.66488036  .00020349  00000+0  95397-3 0  9998\r",
    "tle2": "2 63211  97.4453  13.3362 0006461 107.4001 252.7941 15.19695150  6889",
    "transmitters": [
      {
        "description": "Mode U - Transmitter",
        "mode": "FSK AX.100 Mode 5",
        "status": "active",
        "uplink": null,
        "downlink": 436200000
      }
    ],
    "image": "",
    "country": "SG"
  },
  {
    "norad_id": "60243",
    "name": "ROBUSTA-3A",
    "tle1": "1 60243U 24128J   25118.69939699  .00012340  00000+0  88101-3 0  9999\r",
    "tle2": "2 60243  61.9897 225.1018 0046546  41.4683 318.9925 15.04003076 43928",
    "transmitters": [
      {
        "description": "Mode U - GMSK9k6 - AX.25",
        "mode": "GMSK",
        "status": "active",
        "uplink": null,
        "downlink": 436750000
      },
      {
        "description": "Mode S - Transmitter",
        "mode": "FM",
        "status": "active",
        "uplink": null,
        "downlink": 2202000000
      }
    ],
    "image": "satellites/ROBUSTA-3A.png",
    "country": "FR"
  },
  {
    "norad_id": "27607",
    "name": "SaudiSat-1C",
    "tle1": "1 27607U 02058C   25118.97298168  .00002341  00000+0  30955-3 0  9998\r",
    "tle2": "2 27607  64.5548 328.9558 0051361 343.8269  16.1194 14.81500146203273",
    "transmitters": [
      {
        "description": "Mode V/U FM Voice CTCSS 67.0 Hz",
        "mode": "FM",
        "status": "active",
        "uplink": 145850000,
        "downlink": 436795000
      },
      {
        "description": "Mode V TLM",
        "mode": "FM",
        "status": "active",
        "uplink": null,
        "downlink": 149025000
      }
    ],
    "image": "https://db-satnogs.freetls.fastly.net/media/satellites/saudisat-so-50.jpg",
    "country": "SA"
  },
  {
    "norad_id": "59112",
    "name": "SONATE-2",
    "tle1": "1 59112U 24043Q   25118.31874102  .00028789  00000+0  86846-3 0  9992\r",
    "tle2": "2 59112  97.5078 248.7116 0010537 262.0619  97.9428 15.34197160 63855",
    "transmitters": [
      {
        "description": "Mode V - CW",
        "mode": "CW",
        "status": "active",
        "uplink": null,
        "downlink": 145840000
      },
      {
        "description": "Mode U - GMSK9k6 - AX.25 G3RUH - Telemetry",
        "mode": "GMSK",
        "status": "active",
        "uplink": null,
        "downlink": 437025000
      },
      {
        "description": "Mode V - SSTV - Martin M1 SSTV",
        "mode": "SSTV",
        "status": "active",
        "uplink": null,
        "downlink": 145880000
      },
      {
        "description": "Mode V/V - APRS digipeater",
        "mode": "AFSK",
        "status": "active",
        "uplink": 145825000,
        "downlink": 145825000
      },
      {
        "description": "Mode S - QPSK 2.048 Msps - CCSDS 131.0-B Convolutional code k=7, r=0.5, randomizer on",
        "mode": "QPSK",
        "status": "active",
        "uplink": null,
        "downlink": 2267700000
      }
    ],
    "image": "satellites/sonate-2.png",
    "country": "DE"
  },
  {
    "norad_id": "43804",
    "name": "Suomi-100",
    "tle1": "1 43804U 18099AY  25118.41031076  .00015167  00000+0  75811-3 0  9999\r",
    "tle2": "2 43804  97.4760 177.2984 0010830 295.9966  64.0151 15.17495544350303",
    "transmitters": [
      {
        "description": "GMSK9k6 TLM",
        "mode": "MSK AX.100 Mode 5",
        "status": "active",
        "uplink": null,
        "downlink": 437775000
      }
    ],
    "image": "satellites/suomi1001.png",
    "country": "FI"
  },
  {
    "norad_id": "43188",
    "name": "S-NetA",
    "tle1": "1 43188U 18014J   25118.66331465  .00009029  00000+0  53822-3 0  9991\r",
    "tle2": "2 43188  97.5679  22.1180 0010231  16.5987 343.5576 15.11360287396045",
    "transmitters": [
      {
        "description": "S-Band Downlink",
        "mode": "FM",
        "status": "active",
        "uplink": null,
        "downlink": 2263000000
      },
      {
        "description": "AFSK 1k2 TLM",
        "mode": "AFSK TUBiX10",
        "status": "active",
        "uplink": null,
        "downlink": 435950000
      }
    ],
    "image": "",
    "country": "DE"
  },
  {
    "norad_id": "49396",
    "name": "TeikyoSat-4",
    "tle1": "1 49396U 21102B   25118.66859940  .00003855  00000+0  25812-3 0  9992\r",
    "tle2": "2 49396  97.4129 158.6053 0011016 277.9561  82.0417 15.07436782190239",
    "transmitters": [
      {
        "description": "Mode U - CW Beacon",
        "mode": "CW",
        "status": "active",
        "uplink": null,
        "downlink": 437450000
      },
      {
        "description": "Mode U - AFSK1k2",
        "mode": "AFSK",
        "status": "active",
        "uplink": null,
        "downlink": 437450000
      },
      {
        "description": "Mode U - GMSK9k6",
        "mode": "GMSK",
        "status": "active",
        "uplink": null,
        "downlink": 437450000
      },
      {
        "description": "Mode U - SSTV",
        "mode": "SSTV",
        "status": "active",
        "uplink": null,
        "downlink": 437450000
      },
      {
        "description": "Mode S - FSK115k2",
        "mode": "FSK",
        "status": "active",
        "uplink": null,
        "downlink": 5831000000
      }
    ],
    "image": "satellites/TS4_patch.jpg",
    "country": "JP"
  },
  {
    "norad_id": "63217",
    "name": "TEVEL2-1",
    "tle1": "1 63217U 25052H   25118.21644667  .00019940  00000+0  94885-3 0  9995\r",
    "tle2": "2 63217  97.4350  12.8065 0005301 128.9484 231.2223 15.19187801  6817",
    "transmitters": [
      {
        "description": "Mode U - BPSK9k6 G3RUH - Beacon",
        "mode": "BPSK",
        "status": "active",
        "uplink": null,
        "downlink": 436400000
      },
      {
        "description": "Mode V/U - FM Transponder",
        "mode": "FM",
        "status": "active",
        "uplink": 145970000,
        "downlink": 436400000
      }
    ],
    "image": "satellites/transit-o__1.jpg",
    "country": "US"
  },
  {
    "norad_id": "63218",
    "name": "TEVEL2-2",
    "tle1": "1 63218U 25052J   25118.94120894  .00018026  00000+0  85782-3 0  9997\r",
    "tle2": "2 63218  97.4349  13.5196 0005361 128.0539 232.1181 15.19207409  6929",
    "transmitters": [],
    "image": "satellites/transit-o__1.jpg",
    "country": "US"
  },
  {
    "norad_id": "63219",
    "name": "TEVEL2-3",
    "tle1": "1 63219U 25052K   25118.87535758  .00017898  00000+0  85188-3 0  9995\r",
    "tle2": "2 63219  97.4349  13.4547 0005312 127.7771 232.3945 15.19202558  6918",
    "transmitters": [],
    "image": "satellites/transit-o__1.jpg",
    "country": "US"
  }
]